[{"OBJECT_NAME":"STARLINK-5061","OBJECT_ID":"2022-177AD","EPOCH":"2026-03-09T11:09:52.793568","MEAN_MOTION":15.02532329,"ECCENTRICITY":0.00012767,"INCLINATION":43.004,"RA_OF_ASC_NODE":108.3577,"ARG_OF_PERICENTER":269.0356,"MEAN_ANOMALY":91.034,"EPHEMERIS_TYPE":0,"CLASSIFICATION_TYPE":"U","NORAD_CAT_ID":54847,"ELEMENT_SET_NO":999,"REV_AT_EPOCH":17722,"BSTAR":-6.0750129e-5,"MEAN_MOTION_DOT":-1.024e-5,"MEAN_MOTION_DDOT":0},{"OBJECT_NAME":"EINSTEIN PROBE","OBJECT_ID":"2024-007A","EPOCH":"2026-03-09T14:28:05.763072","MEAN_MOTION":15.01336938,"ECCENTRICITY":0.0009522,"INCLINATION":28.998,"RA_OF_ASC_NODE":140.909,"ARG_OF_PERICENTER":248.3814,"MEAN_ANOMALY":111.577,"EPHEMERIS_TYPE":0,"CLASSIFICATION_TYPE":"U","NORAD_CAT_ID":58753,"ELEMENT_SET_NO":999,"REV_AT_EPOCH":11858,"BSTAR":0.00031977,"MEAN_MOTION_DOT":4.372e-5,"MEAN_MOTION_DDOT":0}]
